{
  "norad_id": 63150,
  "name": "STARLINK-32919",
  "history": [
    {
      "epoch": "2026-03-28T20:31:59.875104Z",
      "apogee_km": 484.12139367093005,
      "perigee_km": 481.87684160140634,
      "latitude_deg": -7.044965002578838e-06,
      "longitude_deg": 133.71050436624859,
      "height_km": 482.7683922909137,
      "semi_major_axis_km": 6861.136117636168,
      "eccentricity": 0.00016357,
      "inclination_deg": 42.996,
      "raan_deg": 267.98,
      "arg_perigee_deg": 270.3662,
      "mean_anomaly_deg": 89.7002,
      "mean_motion_rev_day": 15.27596691
    },
    {
      "epoch": "2026-03-29T04:22:46.884576Z",
      "apogee_km": 483.8243954640584,
      "perigee_km": 482.2106519200861,
      "latitude_deg": 1.0756157675632347e-05,
      "longitude_deg": 13.843110738656305,
      "height_km": 482.6536809790289,
      "semi_major_axis_km": 6861.154523692072,
      "eccentricity": 0.0001176,
      "inclination_deg": 42.9988,
      "raan_deg": 266.1307,
      "arg_perigee_deg": 280.0081,
      "mean_anomaly_deg": 80.0638,
      "mean_motion_rev_day": 15.27590544
    },
    {
      "epoch": "2026-03-30T03:55:07.843008Z",
      "apogee_km": 483.4368675054311,
      "perigee_km": 482.6039229976486,
      "latitude_deg": -1.7028102330187537e-05,
      "longitude_deg": 14.251236162666828,
      "height_km": 482.39469751547887,
      "semi_major_axis_km": 6861.15739525154,
      "eccentricity": 6.07e-05,
      "inclination_deg": 43.001,
      "raan_deg": 260.5929,
      "arg_perigee_deg": 15.6121,
      "mean_anomaly_deg": 344.4749,
      "mean_motion_rev_day": 15.27589585
    },
    {
      "epoch": "2026-03-30T11:45:54.621792Z",
      "apogee_km": 483.4759764038354,
      "perigee_km": 482.5837502649274,
      "latitude_deg": 2.0772386258622896e-05,
      "longitude_deg": -105.61237196111827,
      "height_km": 482.74347897426424,
      "semi_major_axis_km": 6861.166863334381,
      "eccentricity": 6.502e-05,
      "inclination_deg": 42.9939,
      "raan_deg": 258.7464,
      "arg_perigee_deg": 277.9559,
      "mean_anomaly_deg": 82.1219,
      "mean_motion_rev_day": 15.27586423
    },
    {
      "epoch": "2026-03-30T19:36:41.834304Z",
      "apogee_km": 483.9882944651481,
      "perigee_km": 482.09941137633905,
      "latitude_deg": 2.5769277979063754e-06,
      "longitude_deg": 134.52104804208798,
      "height_km": 482.7803195405633,
      "semi_major_axis_km": 6861.180852920743,
      "eccentricity": 0.00013765,
      "inclination_deg": 42.998,
      "raan_deg": 256.8988,
      "arg_perigee_deg": 272.4272,
      "mean_anomaly_deg": 87.6422,
      "mean_motion_rev_day": 15.27581751
    },
    {
      "epoch": "2026-03-31T17:34:53.108832Z",
      "apogee_km": 484.0610628066497,
      "perigee_km": 481.87099871923056,
      "latitude_deg": 2.0440132550485898e-05,
      "longitude_deg": 158.90222356969275,
      "height_km": 482.74697081488887,
      "semi_major_axis_km": 6861.10303076294,
      "eccentricity": 0.0001596,
      "inclination_deg": 42.9989,
      "raan_deg": 251.7292,
      "arg_perigee_deg": 269.7799,
      "mean_anomaly_deg": 90.287,
      "mean_motion_rev_day": 15.27607741
    },
    {
      "epoch": "2026-04-01T17:07:14.197728Z",
      "apogee_km": 483.98160514834126,
      "perigee_km": 482.12085090090204,
      "latitude_deg": -3.653964699220967e-05,
      "longitude_deg": 159.30827341736753,
      "height_km": 482.6079210721858,
      "semi_major_axis_km": 6861.188228024622,
      "eccentricity": 0.0001356,
      "inclination_deg": 42.9981,
      "raan_deg": 246.1899,
      "arg_perigee_deg": 283.6629,
      "mean_anomaly_deg": 76.4071,
      "mean_motion_rev_day": 15.27579288
    },
    {
      "epoch": "2026-04-02T10:22:57.593856Z",
      "apogee_km": 483.36863417723544,
      "perigee_km": 482.6058143859791,
      "latitude_deg": 2.67787484128768e-05,
      "longitude_deg": -104.391802985762,
      "height_km": 482.604846679417,
      "semi_major_axis_km": 6861.124224281607,
      "eccentricity": 5.559e-05,
      "inclination_deg": 42.9998,
      "raan_deg": 242.1295,
      "arg_perigee_deg": 294.5183,
      "mean_anomaly_deg": 65.5611,
      "mean_motion_rev_day": 15.27600663
    },
    {
      "epoch": "2026-04-03T17:46:04.581984Z",
      "apogee_km": 484.6199950286491,
      "perigee_km": 481.54891230598696,
      "latitude_deg": -1.3962306798110132e-05,
      "longitude_deg": 136.15218928488744,
      "height_km": 482.7211377852318,
      "semi_major_axis_km": 6861.221453667317,
      "eccentricity": 0.0002238,
      "inclination_deg": 43.0009,
      "raan_deg": 234.7416,
      "arg_perigee_deg": 275.2603,
      "mean_anomaly_deg": 84.7993,
      "mean_motion_rev_day": 15.27568192
    },
    {
      "epoch": "2026-04-04T17:18:26.484768Z",
      "apogee_km": 484.09059632088156,
      "perigee_km": 481.85113071422984,
      "latitude_deg": -1.9198466013359027e-05,
      "longitude_deg": 136.55709187204863,
      "height_km": 482.5249141328281,
      "semi_major_axis_km": 6861.107863517555,
      "eccentricity": 0.0001632,
      "inclination_deg": 42.9995,
      "raan_deg": 229.2045,
      "arg_perigee_deg": 281.4765,
      "mean_anomaly_deg": 78.5903,
      "mean_motion_rev_day": 15.27606127
    },
    {
      "epoch": "2026-04-05T08:59:33.194400Z",
      "apogee_km": 495.76768487031677,
      "perigee_km": 466.72259151962953,
      "latitude_deg": -3.750335347107136e-05,
      "longitude_deg": -103.05515354477548,
      "height_km": 488.2549134912844,
      "semi_major_axis_km": 6859.382138194973,
      "eccentricity": 0.00211718,
      "inclination_deg": 42.9975,
      "raan_deg": 225.5144,
      "arg_perigee_deg": 240.0963,
      "mean_anomaly_deg": 119.7785,
      "mean_motion_rev_day": 15.2818265
    },
    {
      "epoch": "2026-04-05T20:00:03.000384Z",
      "apogee_km": 484.1359549347917,
      "perigee_km": 482.13109168788014,
      "latitude_deg": 2.461644314232806,
      "longitude_deg": 91.40764972430156,
      "height_km": 482.5887595768129,
      "semi_major_axis_km": 6861.270523311336,
      "eccentricity": 0.0001461,
      "inclination_deg": 42.9999,
      "raan_deg": 222.9257,
      "arg_perigee_deg": 275.6273,
      "mean_anomaly_deg": 88.0302,
      "mean_motion_rev_day": 15.27551805
    },
    {
      "epoch": "2026-04-06T00:00:02.000160Z",
      "apogee_km": 484.0141079567893,
      "perigee_km": 481.9465788565267,
      "latitude_deg": -14.40439220933562,
      "longitude_deg": -136.4265417012349,
      "height_km": 485.3673132491235,
      "semi_major_axis_km": 6861.117343406658,
      "eccentricity": 0.00015067,
      "inclination_deg": 42.9999,
      "raan_deg": 221.9826,
      "arg_perigee_deg": 271.0853,
      "mean_anomaly_deg": 290.1195,
      "mean_motion_rev_day": 15.27602961
    },
    {
      "epoch": "2026-04-07T14:21:19.353024Z",
      "apogee_km": 483.79965272860136,
      "perigee_km": 482.0802668424785,
      "latitude_deg": 7.767339771664905e-06,
      "longitude_deg": 161.75282856268566,
      "height_km": 482.57644852410283,
      "semi_major_axis_km": 6861.07695978554,
      "eccentricity": 0.0001253,
      "inclination_deg": 42.9984,
      "raan_deg": 212.9562,
      "arg_perigee_deg": 279.3664,
      "mean_anomaly_deg": 80.7046,
      "mean_motion_rev_day": 15.27616448
    },
    {
      "epoch": "2026-04-08T13:53:40.014240Z",
      "apogee_km": 484.1638699198593,
      "perigee_km": 481.82971220413947,
      "latitude_deg": 1.5455852608605696e-05,
      "longitude_deg": 162.15873004125817,
      "height_km": 483.11389595506586,
      "semi_major_axis_km": 6861.133791061999,
      "eccentricity": 0.0001701,
      "inclination_deg": 42.9913,
      "raan_deg": 207.4149,
      "arg_perigee_deg": 107.1714,
      "mean_anomaly_deg": 252.9324,
      "mean_motion_rev_day": 15.27597468
    },
    {
      "epoch": "2026-04-09T13:26:00.726432Z",
      "apogee_km": 483.3889210982625,
      "perigee_km": 482.63048994143446,
      "latitude_deg": -2.071212019850086e-06,
      "longitude_deg": 162.56669167484935,
      "height_km": 483.1057750793459,
      "semi_major_axis_km": 6861.146705519848,
      "eccentricity": 5.527e-05,
      "inclination_deg": 42.9922,
      "raan_deg": 201.8759,
      "arg_perigee_deg": 148.0822,
      "mean_anomaly_deg": 212.0063,
      "mean_motion_rev_day": 15.27593155
    },
    {
      "epoch": "2026-04-10T12:00:02.000160Z",
      "apogee_km": 484.05302574338657,
      "perigee_km": 482.07013935302984,
      "latitude_deg": 27.7952875157673,
      "longitude_deg": -36.3763303842913,
      "height_km": 483.9677528669324,
      "semi_major_axis_km": 6861.198582548208,
      "eccentricity": 0.0001445,
      "inclination_deg": 42.9991,
      "raan_deg": 196.5715,
      "arg_perigee_deg": 269.5031,
      "mean_anomaly_deg": 227.5533,
      "mean_motion_rev_day": 15.2757583
    },
    {
      "epoch": "2026-04-11T17:13:10.803360Z",
      "apogee_km": 484.0467124145989,
      "perigee_km": 482.02541083064534,
      "latitude_deg": -9.402448078692735e-06,
      "longitude_deg": 91.46561098497128,
      "height_km": 483.03933669440624,
      "semi_major_axis_km": 6861.173061622621,
      "eccentricity": 0.0001473,
      "inclination_deg": 42.9994,
      "raan_deg": 189.6936,
      "arg_perigee_deg": 257.041,
      "mean_anomaly_deg": 103.0277,
      "mean_motion_rev_day": 15.27584353
    },
    {
      "epoch": "2026-04-13T05:18:47.954304Z",
      "apogee_km": 483.6807825450496,
      "perigee_km": 482.4784229475854,
      "latitude_deg": 5.511975845269922e-05,
      "longitude_deg": -99.91583027105506,
      "height_km": 483.32373121713374,
      "semi_major_axis_km": 6861.216602746317,
      "eccentricity": 8.762e-05,
      "inclination_deg": 42.994,
      "raan_deg": 181.1992,
      "arg_perigee_deg": 141.4314,
      "mean_anomaly_deg": 218.6601,
      "mean_motion_rev_day": 15.27569812
    }
  ]
}